[{"OBJECT_NAME":"HXMT (HUIYAN)","OBJECT_ID":"2017-034A","EPOCH":"2026-04-04T05:57:39.108384","MEAN_MOTION":15.17813161,"ECCENTRICITY":0.00309844,"INCLINATION":43.0139,"RA_OF_ASC_NODE":234.5401,"ARG_OF_PERICENTER":34.3812,"MEAN_ANOMALY":325.9034,"EPHEMERIS_TYPE":0,"CLASSIFICATION_TYPE":"U","NORAD_CAT_ID":42758,"ELEMENT_SET_NO":999,"REV_AT_EPOCH":48642,"BSTAR":0.00057336923,"MEAN_MOTION_DOT":0.00011732,"MEAN_MOTION_DDOT":0},{"OBJECT_NAME":"SAOCOM 1A","OBJECT_ID":"2018-076A","EPOCH":"2026-04-04T06:42:28.544256","MEAN_MOTION":14.82148331,"ECCENTRICITY":0.0001386,"INCLINATION":97.8897,"RA_OF_ASC_NODE":282.0911,"ARG_OF_PERICENTER":87.2189,"MEAN_ANOMALY":272.9183,"EPHEMERIS_TYPE":0,"CLASSIFICATION_TYPE":"U","NORAD_CAT_ID":43641,"ELEMENT_SET_NO":999,"REV_AT_EPOCH":40515,"BSTAR":3.2364234e-5,"MEAN_MOTION_DOT":2.05e-6,"MEAN_MOTION_DDOT":0},{"OBJECT_NAME":"H-2A R/B","OBJECT_ID":"2018-084L","EPOCH":"2026-04-04T04:07:41.365056","MEAN_MOTION":15.42508421,"ECCENTRICITY":0.00230906,"INCLINATION":98.8683,"RA_OF_ASC_NODE":317.0251,"ARG_OF_PERICENTER":294.8344,"MEAN_ANOMALY":65.0498,"EPHEMERIS_TYPE":0,"CLASSIFICATION_TYPE":"U","NORAD_CAT_ID":43682,"ELEMENT_SET_NO":999,"REV_AT_EPOCH":40970,"BSTAR":0.00076544611,"MEAN_MOTION_DOT":0.00033498,"MEAN_MOTION_DDOT":0},{"OBJECT_NAME":"SAOCOM 1B","OBJECT_ID":"2020-059A","EPOCH":"2026-04-04T05:50:15.571392","MEAN_MOTION":14.82148741,"ECCENTRICITY":0.00014502,"INCLINATION":97.8883,"RA_OF_ASC_NODE":281.1519,"ARG_OF_PERICENTER":82.8737,"MEAN_ANOMALY":277.2641,"EPHEMERIS_TYPE":0,"CLASSIFICATION_TYPE":"U","NORAD_CAT_ID":46265,"ELEMENT_SET_NO":999,"REV_AT_EPOCH":30253,"BSTAR":3.1901634e-5,"MEAN_MOTION_DOT":2.02e-6,"MEAN_MOTION_DDOT":0},{"OBJECT_NAME":"CSS (TIANHE)","OBJECT_ID":"2021-035A","EPOCH":"2026-04-04T04:10:02.386272","MEAN_MOTION":15.61988078,"ECCENTRICITY":0.00037703,"INCLINATION":41.4678,"RA_OF_ASC_NODE":52.9483,"ARG_OF_PERICENTER":120.6138,"MEAN_ANOMALY":239.5073,"EPHEMERIS_TYPE":0,"CLASSIFICATION_TYPE":"U","NORAD_CAT_ID":48274,"ELEMENT_SET_NO":999,"REV_AT_EPOCH":28159,"BSTAR":0.00036373884,"MEAN_MOTION_DOT":0.00032464,"MEAN_MOTION_DDOT":0},{"OBJECT_NAME":"COSMOS 2550","OBJECT_ID":"2021-056A","EPOCH":"2026-04-04T09:42:48.621024","MEAN_MOTION":15.338373,"ECCENTRICITY":0.0008431,"INCLINATION":67.1431,"RA_OF_ASC_NODE":323.0974,"ARG_OF_PERICENTER":269.6767,"MEAN_ANOMALY":90.3422,"EPHEMERIS_TYPE":0,"CLASSIFICATION_TYPE":"U","NORAD_CAT_ID":48865,"ELEMENT_SET_NO":999,"REV_AT_EPOCH":26740,"BSTAR":9.1326e-5,"MEAN_MOTION_DOT":2.815e-5,"MEAN_MOTION_DDOT":0},{"OBJECT_NAME":"CZ-2C R/B","OBJECT_ID":"2022-058K","EPOCH":"2026-04-04T06:40:00.151392","MEAN_MOTION":15.56303456,"ECCENTRICITY":0.00411476,"INCLINATION":50.1866,"RA_OF_ASC_NODE":186.4747,"ARG_OF_PERICENTER":310.7638,"MEAN_ANOMALY":48.9764,"EPHEMERIS_TYPE":0,"CLASSIFICATION_TYPE":"U","NORAD_CAT_ID":52794,"ELEMENT_SET_NO":999,"REV_AT_EPOCH":21411,"BSTAR":0.00075594387,"MEAN_MOTION_DOT":0.00056284,"MEAN_MOTION_DDOT":0},{"OBJECT_NAME":"CZ-2C R/B","OBJECT_ID":"2022-132E","EPOCH":"2026-04-03T21:59:14.026848","MEAN_MOTION":15.6434922,"ECCENTRICITY":0.00159695,"INCLINATION":97.2951,"RA_OF_ASC_NODE":98.0438,"ARG_OF_PERICENTER":6.7107,"MEAN_ANOMALY":353.4363,"EPHEMERIS_TYPE":0,"CLASSIFICATION_TYPE":"U","NORAD_CAT_ID":54039,"ELEMENT_SET_NO":999,"REV_AT_EPOCH":19431,"BSTAR":0.00080299053,"MEAN_MOTION_DOT":0.00077695,"MEAN_MOTION_DDOT":0},{"OBJECT_NAME":"GSLV R/B","OBJECT_ID":"2022-138AN","EPOCH":"2026-04-04T04:35:33.706176","MEAN_MOTION":14.96946837,"ECCENTRICITY":0.00237062,"INCLINATION":87.3848,"RA_OF_ASC_NODE":157.8236,"ARG_OF_PERICENTER":62.7996,"MEAN_ANOMALY":297.5648,"EPHEMERIS_TYPE":0,"CLASSIFICATION_TYPE":"U","NORAD_CAT_ID":54149,"ELEMENT_SET_NO":999,"REV_AT_EPOCH":18774,"BSTAR":0.00045899385,"MEAN_MOTION_DOT":5.33e-5,"MEAN_MOTION_DDOT":0},{"OBJECT_NAME":"XRISM","OBJECT_ID":"2023-137A","EPOCH":"2026-04-04T03:04:56.995680","MEAN_MOTION":15.11816843,"ECCENTRICITY":0.00078361,"INCLINATION":31.0011,"RA_OF_ASC_NODE":119.0851,"ARG_OF_PERICENTER":294.3915,"MEAN_ANOMALY":65.5905,"EPHEMERIS_TYPE":0,"CLASSIFICATION_TYPE":"U","NORAD_CAT_ID":57800,"ELEMENT_SET_NO":999,"REV_AT_EPOCH":14164,"BSTAR":0.0005358842,"MEAN_MOTION_DOT":9.491e-5,"MEAN_MOTION_DDOT":0},{"OBJECT_NAME":"ACS3","OBJECT_ID":"2024-077B","EPOCH":"2026-04-04T06:20:38.493024","MEAN_MOTION":13.90880919,"ECCENTRICITY":0.00733985,"INCLINATION":97.195,"RA_OF_ASC_NODE":29.629,"ARG_OF_PERICENTER":18.9723,"MEAN_ANOMALY":341.4151,"EPHEMERIS_TYPE":0,"CLASSIFICATION_TYPE":"U","NORAD_CAT_ID":59588,"ELEMENT_SET_NO":999,"REV_AT_EPOCH":9775,"BSTAR":0.026894103,"MEAN_MOTION_DOT":0.0003453,"MEAN_MOTION_DDOT":0},{"OBJECT_NAME":"HTV-X1","OBJECT_ID":"2025-241A","EPOCH":"2026-04-04T05:07:04.448352","MEAN_MOTION":15.32530492,"ECCENTRICITY":0.00073109,"INCLINATION":51.6358,"RA_OF_ASC_NODE":310.0349,"ARG_OF_PERICENTER":271.2377,"MEAN_ANOMALY":88.7767,"EPHEMERIS_TYPE":0,"CLASSIFICATION_TYPE":"U","NORAD_CAT_ID":66174,"ELEMENT_SET_NO":999,"REV_AT_EPOCH":2485,"BSTAR":0.00028690735,"MEAN_MOTION_DOT":8.792e-5,"MEAN_MOTION_DDOT":0},{"OBJECT_NAME":"SZ-21 MODULE","OBJECT_ID":"2025-246C","EPOCH":"2026-04-04T06:29:10.005216","MEAN_MOTION":15.70682632,"ECCENTRICITY":0.00032252,"INCLINATION":41.475,"RA_OF_ASC_NODE":45.653,"ARG_OF_PERICENTER":227.1909,"MEAN_ANOMALY":132.8663,"EPHEMERIS_TYPE":0,"CLASSIFICATION_TYPE":"U","NORAD_CAT_ID":66515,"ELEMENT_SET_NO":999,"REV_AT_EPOCH":2209,"BSTAR":0.00047836762,"MEAN_MOTION_DOT":0.00061134,"MEAN_MOTION_DDOT":0}]
