HXMT (HUIYAN)           
1 42758U 17034A   26094.24836931  .00011732  00000+0  57337-3 0  9999
2 42758  43.0139 234.5401 0030984  34.3812 325.9034 15.17813161486426
SAOCOM 1A               
1 43641U 18076A   26094.27949704  .00000205  00000+0  32364-4 0  9991
2 43641  97.8897 282.0911 0001386  87.2189 272.9183 14.82148331405156
H-2A R/B                
1 43682U 18084L   26094.17200654  .00033498  00000+0  76545-3 0  9996
2 43682  98.8683 317.0251 0023090 294.8344  65.0498 15.42508421409708
SAOCOM 1B               
1 46265U 20059A   26094.24323578  .00000202  00000+0  31902-4 0  9996
2 46265  97.8883 281.1519 0001450  82.8737 277.2641 14.82148741302532
CSS (TIANHE)            
1 48274U 21035A   26094.17363873  .00032464  00000+0  36374-3 0  9999
2 48274  41.4678  52.9483 0003770 120.6138 239.5073 15.61988078281593
COSMOS 2550             
1 48865U 21056A   26094.40472941  .00002815  00000+0  91326-4 0  9997
2 48865  67.1431 323.0974 0008431 269.6767  90.3422 15.33837300267404
CZ-2C R/B               
1 52794U 22058K   26094.27777953  .00056284  00000+0  75594-3 0  9999
2 52794  50.1866 186.4747 0041147 310.7638  48.9764 15.56303456214112
CZ-2C R/B               
1 54039U 22132E   26093.91613457  .00077695  00000+0  80299-3 0  9991
2 54039  97.2951  98.0438 0015969   6.7107 353.4363 15.64349220194310
GSLV R/B                
1 54149U 22138AN  26094.19136234  .00005330  00000+0  45899-3 0  9997
2 54149  87.3848 157.8236 0023706  62.7996 297.5648 14.96946837187747
XRISM                   
1 57800U 23137A   26094.12843745  .00009491  00000+0  53588-3 0  9995
2 57800  31.0011 119.0851 0007836 294.3915  65.5905 15.11816843141644
ACS3                    
1 59588U 24077B   26094.26433441  .00034530  00000+0  26894-1 0  9997
2 59588  97.1950  29.6290 0073398  18.9723 341.4151 13.90880919 97751
HTV-X1                  
1 66174U 25241A   26094.21324593  .00008792  00000+0  28691-3 0  9992
2 66174  51.6358 310.0349 0007310 271.2377  88.7767 15.32530492 24850
SZ-21 MODULE            
1 66515U 25246C   26094.27025469  .00061134  00000+0  47837-3 0  9994
2 66515  41.4750  45.6530 0003225 227.1909 132.8663 15.70682632 22093
